[
    {
        "Altitude(m)": 617710.6893897943,
        "Argument of Periapsis(deg)": 0.0,
        "Eccentricity": 0.0,
        "Inclination(deg)": 60.0,
        "Latitude(deg)": -41.10279476787597,
        "Longitude(deg)": -30.03326605068369,
        "Mean Anomaly(deg)": -49.09089999999996,
        "RAAN(deg)": 100.0,
        "Satellite Name": "Test1 459",
        "Satellite Number": 459,
        "Semi-Major Axis(m)": 6980739.136638005,
        "Time(s)": 0
    },
    {
        "Altitude(m)": 617517.9873791793,
        "Argument of Periapsis(deg)": 0.00010418945913296404,
        "Eccentricity": 0.0,
        "Inclination(deg)": 60.0,
        "Latitude(deg)": -40.63700069033148,
        "Longitude(deg)": -29.53647314628231,
        "Mean Anomaly(deg)": -48.470793854538115,
        "RAAN(deg)": 99.99957995086025,
        "Satellite Name": "Test1 459",
        "Satellite Number": 459,
        "Semi-Major Axis(m)": 6980739.136638005,
        "Time(s)": 10
    }
]